ENVISAT                 
1 27386U 02009A   25327.85202963  .00000135  00000+0  57656-4 0  9992
2 27386  98.3571 279.0743 0001257  81.1224 332.9980 14.38988828243952
IDEFIX & ARIANE 42P R/B 
1 27422U 02021B   25327.77364919  .00000317  00000+0  13720-3 0  9993
2 27422  98.5760 262.7135 0012490 135.0599 225.1597 14.30929708228879
AQUA                    
1 27424U 02022A   25327.86396431  .00001114  00000+0  23319-3 0  9991
2 27424  98.4011 288.4400 0000583  82.3671 330.3623 14.61742183253279
CZ-4B R/B               
1 27432U 02024C   25327.76861769  .00000068  00000+0  58119-4 0  9996
2 27432  98.9026  16.6039 0049495 324.7869 142.9932 14.14522174214265
MIDORI II (ADEOS-II)    
1 27597U 02056A   25327.74293339  .00000310  00000+0  13978-3 0  9996
2 27597  98.7609 280.6025 0000855  22.6664 337.4555 14.29186695195163
H-2A R/B                
1 27601U 02056E   25327.76780752  .00000293  00000+0  11692-3 0  9995
2 27601  98.3039 287.2832 0071375 116.7359 307.8618 14.33654782198933
CZ-4B R/B               
1 28059U 03049C   25327.54526375  .00000397  00000+0  10276-3 0  9993
2 28059  98.6775 313.3856 0047907 194.3374 165.6465 14.54883613171167
CZ-2C R/B               
1 28222U 04012C   25327.68676346  .00032150  00000+0  49848-3 0  9994
2 28222  97.7447  18.7584 0017823 344.0673  16.0016 15.53770760187761
SL-16 R/B               
1 28353U 04021B   25327.74105150  .00000188  00000+0  12241-3 0  9999
2 28353  71.0008  94.8323 0006166 220.7725 139.2936 14.14580745107855
CZ-4B R/B               
1 28415U 04035C   25327.55946558  .00008091  00000+0  30380-3 0  9992
2 28415  97.3627 358.1632 0033235 347.9443  12.0997 15.26936864163709
CZ-2C R/B               
1 28480U 04046B   25327.74594889  .00000202  00000+0  89471-4 0  9995
2 28480  98.1972 244.3063 0140699 108.0063 253.6510 14.26928190 93397
ARIANE 5 R/B            
1 28499U 04049H   25327.44883250  .00000906  00000+0  10711-3 0  9999
2 28499  98.2519 127.0404 0084145 336.1884  23.5446 14.84950535130025
