CCSDS_OMM_VERS = 2.0
CREATION_DATE  = 
ORIGINATOR     = 

OBJECT_NAME    = ENVISAT
OBJECT_ID      = 2002-009A
CENTER_NAME    = EARTH
REF_FRAME      = TEME
TIME_SYSTEM    = UTC
MEAN_ELEMENT_THEORY = SGP/SGP4

EPOCH          = 2025-11-23T20:26:55.360032
MEAN_MOTION    = 14.38988828
ECCENTRICITY   = .0001257
INCLINATION    = 98.3571
RA_OF_ASC_NODE = 279.0743
ARG_OF_PERICENTER = 81.1224
MEAN_ANOMALY   = 332.9980

EPHEMERIS_TYPE = 0
CLASSIFICATION_TYPE = U
NORAD_CAT_ID   = 27386
ELEMENT_SET_NO = 999
REV_AT_EPOCH   = 24395
BSTAR          = .57656E-4
MEAN_MOTION_DOT = .135E-5
MEAN_MOTION_DDOT = 0

CCSDS_OMM_VERS = 2.0
CREATION_DATE  = 
ORIGINATOR     = 

OBJECT_NAME    = IDEFIX & ARIANE 42P R/B
OBJECT_ID      = 2002-021B
CENTER_NAME    = EARTH
REF_FRAME      = TEME
TIME_SYSTEM    = UTC
MEAN_ELEMENT_THEORY = SGP/SGP4

EPOCH          = 2025-11-23T18:34:03.290016
MEAN_MOTION    = 14.30929708
ECCENTRICITY   = .001249
INCLINATION    = 98.5760
RA_OF_ASC_NODE = 262.7135
ARG_OF_PERICENTER = 135.0599
MEAN_ANOMALY   = 225.1597

EPHEMERIS_TYPE = 0
CLASSIFICATION_TYPE = U
NORAD_CAT_ID   = 27422
ELEMENT_SET_NO = 999
REV_AT_EPOCH   = 22887
BSTAR          = .1372E-3
MEAN_MOTION_DOT = .317E-5
MEAN_MOTION_DDOT = 0

CCSDS_OMM_VERS = 2.0
CREATION_DATE  = 
ORIGINATOR     = 

OBJECT_NAME    = AQUA
OBJECT_ID      = 2002-022A
CENTER_NAME    = EARTH
REF_FRAME      = TEME
TIME_SYSTEM    = UTC
MEAN_ELEMENT_THEORY = SGP/SGP4

EPOCH          = 2025-11-23T20:44:06.516384
MEAN_MOTION    = 14.61742183
ECCENTRICITY   = .0000583
INCLINATION    = 98.4011
RA_OF_ASC_NODE = 288.4400
ARG_OF_PERICENTER = 82.3671
MEAN_ANOMALY   = 330.3623

EPHEMERIS_TYPE = 0
CLASSIFICATION_TYPE = U
NORAD_CAT_ID   = 27424
ELEMENT_SET_NO = 999
REV_AT_EPOCH   = 25327
BSTAR          = .23319E-3
MEAN_MOTION_DOT = .1114E-4
MEAN_MOTION_DDOT = 0

CCSDS_OMM_VERS = 2.0
CREATION_DATE  = 
ORIGINATOR     = 

OBJECT_NAME    = CZ-4B R/B
OBJECT_ID      = 2002-024C
CENTER_NAME    = EARTH
REF_FRAME      = TEME
TIME_SYSTEM    = UTC
MEAN_ELEMENT_THEORY = SGP/SGP4

EPOCH          = 2025-11-23T18:26:48.568416
MEAN_MOTION    = 14.14522174
ECCENTRICITY   = .0049495
INCLINATION    = 98.9026
RA_OF_ASC_NODE = 16.6039
ARG_OF_PERICENTER = 324.7869
MEAN_ANOMALY   = 142.9932

EPHEMERIS_TYPE = 0
CLASSIFICATION_TYPE = U
NORAD_CAT_ID   = 27432
ELEMENT_SET_NO = 999
REV_AT_EPOCH   = 21426
BSTAR          = .58119E-4
MEAN_MOTION_DOT = .68E-6
MEAN_MOTION_DDOT = 0

CCSDS_OMM_VERS = 2.0
CREATION_DATE  = 
ORIGINATOR     = 

OBJECT_NAME    = MIDORI II (ADEOS-II)
OBJECT_ID      = 2002-056A
CENTER_NAME    = EARTH
REF_FRAME      = TEME
TIME_SYSTEM    = UTC
MEAN_ELEMENT_THEORY = SGP/SGP4

EPOCH          = 2025-11-23T17:49:49.444896
MEAN_MOTION    = 14.29186695
ECCENTRICITY   = .0000855
INCLINATION    = 98.7609
RA_OF_ASC_NODE = 280.6025
ARG_OF_PERICENTER = 22.6664
MEAN_ANOMALY   = 337.4555

EPHEMERIS_TYPE = 0
CLASSIFICATION_TYPE = U
NORAD_CAT_ID   = 27597
ELEMENT_SET_NO = 999
REV_AT_EPOCH   = 19516
BSTAR          = .13978E-3
MEAN_MOTION_DOT = .31E-5
MEAN_MOTION_DDOT = 0

CCSDS_OMM_VERS = 2.0
CREATION_DATE  = 
ORIGINATOR     = 

OBJECT_NAME    = H-2A R/B
OBJECT_ID      = 2002-056E
CENTER_NAME    = EARTH
REF_FRAME      = TEME
TIME_SYSTEM    = UTC
MEAN_ELEMENT_THEORY = SGP/SGP4

EPOCH          = 2025-11-23T18:25:38.569728
MEAN_MOTION    = 14.33654782
ECCENTRICITY   = .0071375
INCLINATION    = 98.3039
RA_OF_ASC_NODE = 287.2832
ARG_OF_PERICENTER = 116.7359
MEAN_ANOMALY   = 307.8618

EPHEMERIS_TYPE = 0
CLASSIFICATION_TYPE = U
NORAD_CAT_ID   = 27601
ELEMENT_SET_NO = 999
REV_AT_EPOCH   = 19893
BSTAR          = .11692E-3
MEAN_MOTION_DOT = .293E-5
MEAN_MOTION_DDOT = 0

CCSDS_OMM_VERS = 2.0
CREATION_DATE  = 
ORIGINATOR     = 

OBJECT_NAME    = CZ-4B R/B
OBJECT_ID      = 2003-049C
CENTER_NAME    = EARTH
REF_FRAME      = TEME
TIME_SYSTEM    = UTC
MEAN_ELEMENT_THEORY = SGP/SGP4

EPOCH          = 2025-11-23T13:05:10.788000
MEAN_MOTION    = 14.54883613
ECCENTRICITY   = .0047907
INCLINATION    = 98.6775
RA_OF_ASC_NODE = 313.3856
ARG_OF_PERICENTER = 194.3374
MEAN_ANOMALY   = 165.6465

EPHEMERIS_TYPE = 0
CLASSIFICATION_TYPE = U
NORAD_CAT_ID   = 28059
ELEMENT_SET_NO = 999
REV_AT_EPOCH   = 17116
BSTAR          = .10276E-3
MEAN_MOTION_DOT = .397E-5
MEAN_MOTION_DDOT = 0

CCSDS_OMM_VERS = 2.0
CREATION_DATE  = 
ORIGINATOR     = 

OBJECT_NAME    = CZ-2C R/B
OBJECT_ID      = 2004-012C
CENTER_NAME    = EARTH
REF_FRAME      = TEME
TIME_SYSTEM    = UTC
MEAN_ELEMENT_THEORY = SGP/SGP4

EPOCH          = 2025-11-23T16:28:56.362944
MEAN_MOTION    = 15.53770760
ECCENTRICITY   = .0017823
INCLINATION    = 97.7447
RA_OF_ASC_NODE = 18.7584
ARG_OF_PERICENTER = 344.0673
MEAN_ANOMALY   = 16.0016

EPHEMERIS_TYPE = 0
CLASSIFICATION_TYPE = U
NORAD_CAT_ID   = 28222
ELEMENT_SET_NO = 999
REV_AT_EPOCH   = 18776
BSTAR          = .49848E-3
MEAN_MOTION_DOT = .3215E-3
MEAN_MOTION_DDOT = 0

CCSDS_OMM_VERS = 2.0
CREATION_DATE  = 
ORIGINATOR     = 

OBJECT_NAME    = SL-16 R/B
OBJECT_ID      = 2004-021B
CENTER_NAME    = EARTH
REF_FRAME      = TEME
TIME_SYSTEM    = UTC
MEAN_ELEMENT_THEORY = SGP/SGP4

EPOCH          = 2025-11-23T17:47:06.849600
MEAN_MOTION    = 14.14580745
ECCENTRICITY   = .0006166
INCLINATION    = 71.0008
RA_OF_ASC_NODE = 94.8323
ARG_OF_PERICENTER = 220.7725
MEAN_ANOMALY   = 139.2936

EPHEMERIS_TYPE = 0
CLASSIFICATION_TYPE = U
NORAD_CAT_ID   = 28353
ELEMENT_SET_NO = 999
REV_AT_EPOCH   = 10785
BSTAR          = .12241E-3
MEAN_MOTION_DOT = .188E-5
MEAN_MOTION_DDOT = 0

CCSDS_OMM_VERS = 2.0
CREATION_DATE  = 
ORIGINATOR     = 

OBJECT_NAME    = CZ-4B R/B
OBJECT_ID      = 2004-035C
CENTER_NAME    = EARTH
REF_FRAME      = TEME
TIME_SYSTEM    = UTC
MEAN_ELEMENT_THEORY = SGP/SGP4

EPOCH          = 2025-11-23T13:25:37.826112
MEAN_MOTION    = 15.26936864
ECCENTRICITY   = .0033235
INCLINATION    = 97.3627
RA_OF_ASC_NODE = 358.1632
ARG_OF_PERICENTER = 347.9443
MEAN_ANOMALY   = 12.0997

EPHEMERIS_TYPE = 0
CLASSIFICATION_TYPE = U
NORAD_CAT_ID   = 28415
ELEMENT_SET_NO = 999
REV_AT_EPOCH   = 16370
BSTAR          = .3038E-3
MEAN_MOTION_DOT = .8091E-4
MEAN_MOTION_DDOT = 0

CCSDS_OMM_VERS = 2.0
CREATION_DATE  = 
ORIGINATOR     = 

OBJECT_NAME    = CZ-2C R/B
OBJECT_ID      = 2004-046B
CENTER_NAME    = EARTH
REF_FRAME      = TEME
TIME_SYSTEM    = UTC
MEAN_ELEMENT_THEORY = SGP/SGP4

EPOCH          = 2025-11-23T17:54:09.984096
MEAN_MOTION    = 14.26928190
ECCENTRICITY   = .0140699
INCLINATION    = 98.1972
RA_OF_ASC_NODE = 244.3063
ARG_OF_PERICENTER = 108.0063
MEAN_ANOMALY   = 253.6510

EPHEMERIS_TYPE = 0
CLASSIFICATION_TYPE = U
NORAD_CAT_ID   = 28480
ELEMENT_SET_NO = 999
REV_AT_EPOCH   = 9339
BSTAR          = .89471E-4
MEAN_MOTION_DOT = .202E-5
MEAN_MOTION_DDOT = 0

CCSDS_OMM_VERS = 2.0
CREATION_DATE  = 
ORIGINATOR     = 

OBJECT_NAME    = ARIANE 5 R/B
OBJECT_ID      = 2004-049H
CENTER_NAME    = EARTH
REF_FRAME      = TEME
TIME_SYSTEM    = UTC
MEAN_ELEMENT_THEORY = SGP/SGP4

EPOCH          = 2025-11-23T10:46:19.128000
MEAN_MOTION    = 14.84950535
ECCENTRICITY   = .0084145
INCLINATION    = 98.2519
RA_OF_ASC_NODE = 127.0404
ARG_OF_PERICENTER = 336.1884
MEAN_ANOMALY   = 23.5446

EPHEMERIS_TYPE = 0
CLASSIFICATION_TYPE = U
NORAD_CAT_ID   = 28499
ELEMENT_SET_NO = 999
REV_AT_EPOCH   = 13002
BSTAR          = .10711E-3
MEAN_MOTION_DOT = .906E-5
MEAN_MOTION_DDOT = 0

